#dP2024 11 28  6  0  0.00000000      96 __u+U IGS20 EXT  IAC
## 2342 367200.00000000   900.00000000 60642 0.2500000000000
+   52   G02G03G04G05G06G07G08G09G10G11G12G13G14G15G16G17G18
+        G19G20G21G22G23G24G25G26G27G28G29G30G31G32R01R02R03
+        R04R05R07R08R09R11R12R14R15R16R17R18R19R20R21R22R24
+        R26  0  0  0  0  0  0  0  0  0  0  0  0  0  0  0  0
+          0  0  0  0  0  0  0  0  0  0  0  0  0  0  0  0  0
++         7  7  8  8  7  8  8  7  8  8  7  7  8  8  8  8  8
++         7  7  7  8  9  7  8  8  9  8  7  8  7  7  8  8  8
++         7  8  8  8  8  7  8  9  8  8  9  7  9  9  8  7  9
++         7  0  0  0  0  0  0  0  0  0  0  0  0  0  0  0  0
++         0  0  0  0  0  0  0  0  0  0  0  0  0  0  0  0  0
%c M  cc GPS ccc cccc cccc cccc cccc ccccc ccccc ccccc ccccc
%c cc cc ccc ccc cccc cccc cccc cccc ccccc ccccc ccccc ccccc
%f  0.0000000  0.000000000  0.00000000000  0.000000000000000
%f  0.0000000  0.000000000  0.00000000000  0.000000000000000
%i    0    0    0    0      0      0      0      0         0
%i    0    0    0    0      0      0      0      0         0
/* IAC                                ULTRA-RAPID PREDICTION
/* S/V CLOCKS ARE ALIGNED TO GNSS TIME                      
/* G:C1WC2W R:C1PC2P E:C1XC5X C:C2IC6I J:C1CC2S             
/* PCV:IGS20_2317 OL/AL:FES2004  NONE     YN ORB:CoN CLK:CoN
*  2024 11 28 11 30  0.00000000
PG02 -14164.837027  19534.576924  11140.593374   -304.385158
PG03 -18069.633695  12400.175387 -15089.916829    611.562468
PG04  -7611.970341  14281.472806 -21017.090161    487.030468
PG05  26095.635180  -5103.789471    378.072516   -194.376047
PG06   8928.959080  13803.877053 -20760.822761     -2.904303
PG07  -5383.161964  25105.691444   6307.320082    -17.779718
PG08 -16245.123951   3604.613567  20667.979884    425.267009
PG09   1475.874858  20491.462249 -16887.591846    463.758475
PG10 -14729.262975 -11034.462884  19504.304685   -213.125714
PG11  16067.668960     25.946501 -21097.609712   -751.637016
PG12  21649.734260  -9871.188995 -12039.859053   -554.981675
PG13  17980.367460   6278.392539  18379.250590    687.864529
PG14  10685.940601  13539.940412  20300.417084    549.198136
PG15  15306.281475  -6125.915577  20330.167293    233.140679
PG16 -26507.282467  -1512.749825  -4037.509256   -116.902192
PG17  12661.773679  22995.870617   3663.987693    541.109331
PG18   4607.842097 -24733.008619   8178.081648   -660.593932
PG19  17553.953382  19012.961634  -7055.145375    567.924327
PG20  23955.141254    507.057296 -11223.334256    368.351974
PG21 -15860.534497  13685.192007  16026.174175     96.348571
PG22  17672.314060  10921.129241  16762.125971    -82.698305
PG23    559.808812 -14948.744242  21967.139577    372.547419
PG24  14434.282242 -18473.544606  11625.337251   -477.446564
PG25   8708.607364 -15724.061075 -19823.494295    498.640139
PG26 -21787.752475  -6087.478689 -14395.942620     10.559392
PG27 -20098.447108  -8023.501452  15382.102863    -34.546608
PG28  -8664.352340 -15804.718490 -19523.807866   -492.567527
PG29    659.388125 -20298.688537 -17094.093275   -560.290967
PG30   3687.649983  21255.154638  15467.677010   -272.639693
PG31 -14705.276285  -4967.623359 -21807.529490   -220.969882
PG32 -16198.465655 -21188.451170    659.029758   -567.282226
PR01  -5691.075134 -14367.140960  20290.514478    105.905467
PR02 -18792.693502 -15798.381660   7104.611480    -39.374580
PR03 -21951.543819  -7879.200659 -10366.764404    112.216721
PR04 -12881.660454   3662.155272 -21688.598196    266.029839
PR05   2847.690415  13514.888758 -21429.845863    141.386548
PR07  21789.948308   7528.157955  10889.994867     95.874433
PR08  12639.136606  -4138.538517  21814.438834     -6.220872
PR09   9378.995151   7463.254014  22540.966221    223.104091
PR11  21963.464074 -12909.972223  -1436.208065      5.951979
PR12   8937.700721 -15012.482050 -18559.948043     47.753960
PR14 -21127.775951   4184.956508 -13644.469866     27.293247
PR15 -21422.194365  13455.090519   3264.765650     73.657572
PR16  -9079.866344  14966.009972  18543.095337     31.139464
PR17 -10577.942406  -1918.362709  23146.129413    143.826952
PR18  -9093.184524  15197.031104  18361.055682    174.084399
PR19  -4680.801263  24346.531335   6026.729150   -300.051317
PR20   4952.354975  20191.158402 -14738.633918   -122.507341
PR21  10367.296918   3262.749236 -23070.053923   -155.076252
PR22   9408.404747 -16140.365641 -17340.035297    -24.248249
PR24  -6457.777273 -19581.049027  15029.427042    -81.927603
PR26  14087.485885  -2908.792951  21086.702394   -133.224557
*  2024 11 28 11 45  0.00000000
PG02 -14005.670016  18170.954735  13528.994406   -304.377350
PG03 -19643.426907  12515.205031 -12824.970266    611.571180
PG04  -9148.558547  12381.373691 -21614.250648    487.036169
PG05  26041.681131  -4875.703454  -2497.458487   -194.377050
PG06   8012.886401  15934.998484 -19568.483493     -2.931021
PG07  -5849.536612  25477.636277   3521.618537    -17.778127
PG08 -17736.930281   1816.700042  19698.323886    425.275694
PG09     37.431483  19074.390230 -18545.874561    463.773596
PG10 -12527.077727 -11459.349194  20742.875037   -213.139066
PG11  15153.734711   2303.311414 -21645.546451   -751.637962
PG12  22864.104279  -9775.117920  -9553.931114   -554.983811
PG13  18936.425859   8081.541619  16677.633280    687.865919
PG14   8363.524269  13957.480247  21073.072299    549.205233
PG15  17026.338123  -4472.501459  19409.045415    233.144803
PG16 -25955.042446  -1767.735184  -6779.694032   -116.893454
PG17  12148.487905  22708.516770   6463.889564    541.095631
PG18   5099.662833 -25376.228770   5425.917638   -660.593959
PG19  17734.852271  19645.045861  -4312.892833    567.928239
PG20  22684.458084   1213.579367 -13562.534483    368.351674
PG21 -15568.573858  11783.205720  17863.169186     96.347702
PG22  15733.488055  11233.642935  18469.105684    -82.700734
PG23   2994.019178 -15385.241167  21441.855032    372.554482
PG24  14337.398262 -16900.818488  13872.954513   -477.444244
PG25  10833.085058 -15985.972895 -18474.227505    498.639815
PG26 -20172.409859  -6724.480571 -16324.190620     10.547277
PG27 -21043.023542  -9412.909561  13263.251856    -34.546480
PG28  -7859.126389 -17801.595653 -18092.086645   -492.577711
PG29   1955.975577 -18711.204092 -18742.056229   -560.288223
PG30   2880.825789  22710.090738  13389.330059   -272.632557
PG31 -13787.270631  -7231.064471 -21740.890273   -220.969274
PG32 -15885.359837 -21175.710895   3494.590120   -567.277149
PR01  -3439.705432 -13091.886145  21616.825056    105.906691
PR02 -17969.586584 -15119.022259  10093.557402    -39.374395
PR03 -22984.883766  -8291.022396  -7398.542429    112.217400
PR04 -15162.241858   2408.393747 -20351.944810    266.031527
PR05    543.532284  12083.733966 -22445.063440    141.387129
PR07  22869.039871   7976.454366   7946.065088     95.875263
PR08  14926.696067  -2898.090205  20524.178969     -6.220785
PR09   7007.928602   8941.754766  22855.844021    223.106111
PR11  21870.881588 -13026.350280   1774.082044      5.951317
PR12  10761.924737 -16184.799674 -16492.563836     47.754446
PR14 -19509.669369   3314.981274 -16076.751384     27.293357
PR15 -21532.852415  13669.354710     69.411372     73.657329
PR16 -10887.740672  16152.422845  16453.392933     31.139808
PR17 -10591.217839  -4747.448299  22725.001387    143.830067
PR18  -8943.910195  12822.714561  20163.553756    174.086183
PR19  -4431.388242  23424.265909   9093.236957   -300.052400
PR20   5043.835045  21859.882934 -12089.486712   -122.507525
PR21  10367.777840   6079.139176 -22495.168487   -155.078948
PR22   9235.124091 -13879.586442 -19277.474151    -24.259077
PR24  -6574.654122 -21273.521725  12451.824955    -81.928884
PR26  16305.852277  -1742.939686  19561.365225   -133.224219
EOF
